235P/LINEAR,e,9.8124,200.1941,352.1149,3.448358,0.1539166,0.42631655,318.3639,03/27.0/2025,2000,g 12.0,4.0
# From MPEC 2024-P23
236P/LINEAR,e,16.3558,245.5688,119.4202,3.724389,0.1371265,0.50915616,7.0188,03/27.0/2025,2000,g 14.0,4.0
# From MPC182890
237P/LINEAR,e,14.0147,245.3557,25.4984,3.515877,0.1495042,0.43303457,102.0193,03/27.0/2025,2000,g 14.5,2.0
# From MPEC 2024-L77
238P/Read,e,1.2638,51.6467,324.2708,3.167320,0.1748502,0.25069211,179.3858,03/27.0/2025,2000,g 14.5,4.0
# From MPEC 2021-F20
239P/LINEAR,e,11.3072,255.9417,220.3729,4.464072,0.1044978,0.63146083,236.8330,03/27.0/2025,2000,g 17.5,2.0
# From MPEC 2024-YC7
240P/NEAT,e,23.5370,74.9144,352.0697,3.860075,0.1299602,0.45033480,325.1728,03/27.0/2025,2000,g 11.0,4.0
# From MPEC 2022-J42
241P/LINEAR,e,21.0947,305.4233,111.6017,4.927319,0.0901131,0.61021866,120.7296,03/27.0/2025,2000,g 13.5,4.0
# From MPC182890
242P/Spahr,e,32.4247,180.2720,244.9450,5.537592,0.0756350,0.28278735,7.0880,03/27.0/2025,2000,g  8.0,4.0
# From MPEC 2022-K19
243P/NEAT,e,7.6442,87.6480,283.6984,3.827138,0.1316415,0.36034980,315.8322,03/27.0/2025,2000,g 12.5,4.0
# From MPEC 2024-L77
244P/Scotti,e,2.2578,354.0088,93.4735,4.903985,0.0907571,0.19986888,77.8761,03/27.0/2025,2000,g  9.0,4.0
# From MPEC 2022-CN4
245P/WISE,e,21.1717,316.8859,316.5061,4.052339,0.1208218,0.45575996,315.3903,03/27.0/2025,2000,g 14.0,4.0
# From MPEC 2024-YC7
246P/NEAT,e,17.5921,74.2477,185.6440,4.277596,0.1114049,0.22580829,174.9955,03/27.0/2025,2000,g 10.5,4.0
# From MPEC 2021-F20
247P/LINEAR,e,13.6581,53.9917,47.4937,3.964170,0.1248751,0.62557189,287.8283,03/27.0/2025,2000,g 16.5,2.0
# From MPC 75730
248P/Gibbs,e,6.3520,207.8068,209.9789,5.981576,0.0673722,0.63926248,348.4171,03/27.0/2025,2000,g 14.0,4.0
# From MPEC 2022-YN2
249P/LINEAR,e,8.3854,239.0425,65.7438,2.764989,0.2143700,0.81934662,11.4271,03/27.0/2025,2000,g 15.5,4.0
# From MPC182890
250P/Larson,e,13.1525,73.3048,45.7133,3.778393,0.1341972,0.39860276,353.1886,03/27.0/2025,2000,g 14.5,4.0
# From MPEC 2024-TD8
251P/LINEAR,e,23.3881,219.3377,31.1951,3.512044,0.1497491,0.50424233,61.0721,03/27.0/2025,2000,g 16.5,2.0
# From MPEC 2021-S45
252P/LINEAR,e,10.4195,190.9060,343.3759,3.051200,0.1849260,0.67101543,250.7509,03/27.0/2025,2000,g 17.5,4.0
# From MPC182890
253P/PANSTARRS,e,4.9441,146.8509,230.8408,3.464338,0.1528529,0.41496647,23.9949,03/27.0/2025,2000,g 14.5,4.0
# From MPC182890
254P/McNaught,e,32.5394,129.1801,219.7365,4.619895,0.0992558,0.31853542,162.8043,03/27.0/2025,2000,g 11.0,4.0
# From NK 2214
255P/Levy,e,13.4053,275.6366,186.0425,2.942309,0.1952862,0.71204561,181.8092,03/27.0/2025,2000,g  9.0,4.0
# From MPEC 2024-L77
256P/LINEAR,e,27.6239,81.3272,124.0727,4.635334,0.0987603,0.41796757,73.6821,03/27.0/2025,2000,g 14.0,2.0
# From MPEC 2023-A50
257P/Catalina,e,20.2163,207.7270,117.7376,3.767731,0.1347672,0.42880539,223.7869,03/27.0/2025,2000,g 11.5,4.0
# From MPEC 2021-U31
258P/PANSTARRS,e,6.7511,126.2360,25.5981,4.389126,0.1071857,0.20947683,186.8050,03/27.0/2025,2000,g 13.0,4.0
# From MPC106349
259P/Garradd,e,15.8983,51.3725,257.4964,2.729299,0.2185885,0.33872216,250.0086,03/27.0/2025,2000,g 15.5,4.0
# From MPEC 2022-O01
260P/McNaught,e,15.0435,349.3089,18.4922,3.623556,0.1428899,0.60882722,289.1304,03/27.0/2025,2000,g 13.5,4.0
# From MPEC 2021-J28
261P/Larson,e,6.0733,291.0506,67.3651,3.489775,0.1511847,0.42283727,318.3676,03/27.0/2025,2000,g 14.0,4.0
# From MPC 82322
262P/McNaught-Russell,e,29.2553,217.8873,171.0701,6.869268,0.0547442,0.81604830,245.6478,03/27.0/2025,2000,g 13.5,4.0
# From MPEC 2024-L77
263P/Gibbs,e,11.5267,105.5039,35.0203,3.040917,0.1858649,0.59401118,146.1178,03/27.0/2025,2000,g 18.0,4.0
# From MPC114608
264P/Larsen,e,25.1782,219.2134,341.1271,4.028171,0.1219108,0.34064701,272.3949,03/27.0/2025,2000,g 13.0,4.0
# From MPC 79870
265P/LINEAR,e,14.3425,342.9260,33.5594,4.260576,0.1120732,0.64681921,168.9125,03/27.0/2025,2000,g 14.5,4.0
# From MPEC 2021-F20
266P/Christensen,e,3.4282,4.9479,97.7788,3.528136,0.1487257,0.34091461,267.7465,03/27.0/2025,2000,g 14.7,4.0
# From MPC114608
267P/LONEOS,e,6.1408,228.5762,114.2095,3.209300,0.1714307,0.61467775,57.6222,03/27.0/2025,2000,g 19.5,4.0
# From MPC182890
268P/Bernardi,e,15.6614,125.6322,0.0161,4.591394,0.1001814,0.47452556,9.8698,03/27.0/2025,2000,g 14.0,4.0
# From MPEC 2023-J29
269P/Jedicke,e,7.0842,241.7683,225.7170,7.058877,0.0525534,0.43345869,200.8564,03/27.0/2025,2000,g 10.0,4.0
# From MPC 88332
270P/Gehrels,e,2.9249,223.0296,209.9149,6.649586,0.0574794,0.47019815,246.8517,03/27.0/2025,2000,g  8.0,4.0
# From MPC 92277
271P/van Houten-Lemmon,e,6.8672,9.2867,36.6057,7.032329,0.0528513,0.39596144,225.1579,03/27.0/2025,2000,g 11.0,4.0
# From MPEC 2023-D41
272P/NEAT,e,18.0818,109.4393,27.8861,4.461929,0.1045731,0.45546446,102.8562,03/27.0/2025,2000,g 16.0,2.0
# From MPC 82723
273P/Pons-Gambart,e,136.3931,320.3871,20.1371,31.94035,0.0054600,0.97451047,0.0000,12/22.1455/2012,2000,g 11.5,4.0
# From MPEC 2024-GJ3
274P/Tombaugh-Tenagra,e,15.8210,81.3178,38.4884,4.378377,0.1075807,0.44021916,116.5014,03/27.0/2025,2000,g 13.0,4.0
# From MPC 81862
275P/Hermann,e,21.2551,348.6875,173.8985,5.794697,0.0706574,0.71369685,319.0164,03/27.0/2025,2000,g 17.0,4.0
# From MPC182890
276P/Vorobjov,e,14.7874,211.3095,199.2973,5.359798,0.0794294,0.27260765,8.4330,03/27.0/2025,2000,g 11.5,4.0
# From MPEC 2021-F20
277P/LINEAR,e,16.7928,276.2603,152.4325,3.853574,0.1302892,0.50643551,201.4734,03/27.0/2025,2000,g 15.1,4.0
# From MPEC 2021-S45
278P/McNaught,e,6.6195,13.5308,239.3537,3.649063,0.1413944,0.44895850,232.2675,03/27.0/2025,2000,g 14.0,4.0
# From MPEC 2024-A43
279P/LaSagra,e,5.0521,346.1048,5.6543,3.568739,0.1461948,0.39937720,103.5341,03/27.0/2025,2000,g 14.0,4.0
# From MPEC 2024-RQ6
280P/Larsen,e,11.7753,131.3776,104.6497,4.524870,0.1023988,0.41680206,61.4996,03/27.0/2025,2000,g 12.5,4.0
# From MPEC 2023-D41
281P/MOSS,e,4.7177,87.1657,26.9726,4.886168,0.0912539,0.17391465,71.3659,03/27.0/2025,2000,g 11.0,4.0
# From MPC133426
282P/,e,5.8135,217.6079,9.1149,4.235641,0.1130643,0.18764589,141.4595,03/27.0/2025,2000,g 13.5,2.0
# From MPEC 2022-K19
283P/Spacewatch,e,14.4674,161.1226,22.1442,4.131966,0.1173462,0.48487799,152.0653,03/27.0/2025,2000,g 16.0,2.0
# From MPEC 2024-D33
284P/McNaught,e,11.8534,144.2652,202.4705,3.678758,0.1396858,0.37437054,180.5503,03/27.0/2025,2000,g 13.0,4.0
# From MPEC 2024-L77
285P/LINEAR,e,25.0333,185.5129,178.3891,4.505563,0.1030577,0.61812481,82.9720,03/27.0/2025,2000,g 15.0,4.0
# From MPEC 2024-LE0
286P/Christensen,e,17.2016,283.5735,24.2070,4.084321,0.1194055,0.42969284,125.3603,03/27.0/2025,2000,g 14.0,4.0
# From MPEC 2025-A40
287P/Christensen,e,16.3249,138.7922,190.0778,4.182016,0.1152459,0.27282807,72.1996,03/27.0/2025,2000,g 13.5,4.0
# From MPC133426
288P/,e,3.2383,83.1053,280.2980,3.050337,0.1850045,0.19968220,207.5610,03/27.0/2025,2000,g 16.0,2.0
# From MPEC 2024-O39
289P/Blanpain,e,5.9003,68.8913,9.8788,3.043915,0.1855903,0.68647629,356.6000,03/27.0/2025,2000,g 19.0,4.0
# From MPC 95214
290P/Jager,e,20.0467,302.6747,181.8510,6.214078,0.0636267,0.62820624,259.5829,03/27.0/2025,2000,g 10.5,4.0
# From MPEC 2024-YC7
291P/NEAT,e,6.3097,237.6607,173.5588,4.534807,0.1020624,0.43393111,70.7261,03/27.0/2025,2000,g 13.0,4.0
# From MPEC 2022-K19
292P/Li,e,24.3226,90.8953,319.6576,6.096187,0.0654812,0.58993156,265.8665,03/27.0/2025,2000,g 12.5,4.0
# From MPEC 2022-L66
293P/Spacewatch,e,9.0612,78.3639,40.9761,3.637834,0.1420495,0.41949414,221.2129,03/27.0/2025,2000,g 14.5,4.0
# From MPC182890
294P/LINEAR,e,17.7418,309.6015,237.5765,3.191125,0.1728974,0.60105069,336.2809,03/27.0/2025,2000,g 15.5,4.0
# From MPEC 2022-K19
295P/LINEAR,e,21.0838,7.3828,73.0337,5.299309,0.0807933,0.61764837,320.9997,03/27.0/2025,2000,g 12.0,4.0
# From MPEC 2021-N06
296P/Garradd,e,25.3806,263.5328,350.1127,3.475433,0.1521215,0.48509815,249.9009,03/27.0/2025,2000,g 14.0,4.0
# From MPC102956
297P/Beshore,e,11.2368,92.1855,142.2559,3.563820,0.1464976,0.28868124,223.7460,03/27.0/2025,2000,g 15.0,4.0
# From MPC114609
298P/Christensen,e,7.8720,52.7882,100.6143,3.588263,0.1450032,0.38686004,241.1234,03/27.0/2025,2000,g 15.0,4.0
# From MPEC 2024-TD8
299P/Catalina-PANSTARRS,e,10.4690,271.5807,323.6273,4.388870,0.1071951,0.28092175,35.4759,03/27.0/2025,2000,g 11.5,4.0
# From MPEC 2023-VM5
300P/Catalina,e,5.6765,95.6214,222.8853,2.696540,0.2225840,0.69198242,159.3675,03/27.0/2025,2000,g 16.0,4.0
# From MPC 89014
301P/LINEAR-NEAT,e,10.3290,351.0644,193.4398,5.751075,0.0714629,0.58615641,278.0124,03/27.0/2025,2000,g 13.0,4.0
# From MPEC 2024-YC7
302P/Lemmon-PANSTARRS,e,6.0356,121.7155,208.6287,4.267614,0.1117960,0.22939828,1.9657,03/27.0/2025,2000,g 12.5,4.0
# From MPC 92278
303P/NEAT,e,7.0162,347.9517,357.0294,5.040041,0.0871070,0.51030514,331.2621,03/27.0/2025,2000,g 13.5,4.0
# From MPEC 2022-K19
304P/Ory,e,2.6058,58.9391,335.2779,3.149751,0.1763152,0.60087096,297.1987,03/27.0/2025,2000,g 16.5,4.0
# From MPC182890
305P/Skiff,e,11.6712,240.1037,147.4157,4.637281,0.0986982,0.69409997,12.8160,03/27.0/2025,2000,g 18.0,4.0
# From MPC 92278
306P/LINEAR,e,8.3028,341.3530,0.8966,3.124472,0.1784592,0.59258289,337.2202,03/27.0/2025,2000,g 19.0,4.0
# From MPC 92278
307P/LINEAR,e,4.4348,158.1201,222.2502,5.787918,0.0707816,0.67508391,264.7174,03/27.0/2025,2000,g 15.0,4.0
# From MPEC 2022-C56
308P/Lagerkvist-Carsenty,e,4.8525,63.0986,333.7558,6.600903,0.0581164,0.36426239,209.4140,03/27.0/2025,2000,g 13.0,2.0
# From MPC182891
309P/LINEAR,e,17.0204,10.1383,49.9155,4.374670,0.1077175,0.61825312,39.1055,03/27.0/2025,2000,g 15.0,4.0
# From MPC182891
310P/Hill,e,13.1200,8.8839,31.5249,4.181348,0.1152735,0.42213073,60.0357,03/27.0/2025,2000,g 13.5,4.0
# From MPEC 2024-A43
311P/PANSTARRS,e,4.9712,279.1693,144.2804,2.188595,0.3044079,0.11553730,137.0171,03/27.0/2025,2000,g 17.0,4.0
# From MPEC 2024-NE4
312P/NEAT,e,19.7465,144.6385,207.7035,3.472230,0.1523321,0.42672441,250.5534,03/27.0/2025,2000,g 16.0,4.0
# From MPEC 2024-N80
